[{"OBJECT_NAME":"EXO-0","OBJECT_ID":"2023-174DK","EPOCH":"2026-03-09T17:03:04.419648","MEAN_MOTION":15.32821991,"ECCENTRICITY":0.00098779,"INCLINATION":97.3864,"RA_OF_ASC_NODE":148.9039,"ARG_OF_PERICENTER":157.1125,"MEAN_ANOMALY":203.0559,"EPHEMERIS_TYPE":0,"CLASSIFICATION_TYPE":"U","NORAD_CAT_ID":59175,"ELEMENT_SET_NO":999,"REV_AT_EPOCH":12979,"BSTAR":0.00036716083,"MEAN_MOTION_DOT":0.00011582,"MEAN_MOTION_DDOT":0},{"OBJECT_NAME":"STARLINK-31835","OBJECT_ID":"2024-091V","EPOCH":"2026-03-09T07:01:52.770432","MEAN_MOTION":15.30196188,"ECCENTRICITY":0.00012823,"INCLINATION":53.1617,"RA_OF_ASC_NODE":28.7235,"ARG_OF_PERICENTER":92.4836,"MEAN_ANOMALY":267.6311,"EPHEMERIS_TYPE":0,"CLASSIFICATION_TYPE":"U","NORAD_CAT_ID":59772,"ELEMENT_SET_NO":999,"REV_AT_EPOCH":10294,"BSTAR":7.6158103e-5,"MEAN_MOTION_DOT":1.897e-5,"MEAN_MOTION_DDOT":0}]
